IRIDIUM 106             
1 41917U 17003A   23248.19608563  .00000354  00000+0  11950-3 0  9990
2 41917  86.4029 153.1435 0002242  75.9457 284.1987 14.34212898347580
IRIDIUM 103             
1 41918U 17003B   23247.97409742  .00000344  00000+0  11591-3 0  9994
2 41918  86.4026 153.1389 0002476  86.0516 274.0962 14.34221746347587
IRIDIUM 109             
1 41919U 17003C   23247.98044405  .00000346  00000+0  11632-3 0  9995
2 41919  86.4029 153.1789 0002196  89.6640 270.4808 14.34218815347561
IRIDIUM 102             
1 41920U 17003D   23248.15803542  .00000341  00000+0  11458-3 0  9993
2 41920  86.4026 153.0501 0002183  85.8161 274.3284 14.34220140347658
IRIDIUM 105             
1 41921U 17003E   23248.47760113  .00000289  00000+0  96194-4 0  9997
2 41921  86.3965 121.3606 0002171  85.5813 274.5631 14.34216594349559
IRIDIUM 104             
1 41922U 17003F   23248.03119023  .00000334  00000+0  11217-3 0  9991
2 41922  86.4027 153.1302 0002283  84.2073 275.9383 14.34218056347624
IRIDIUM 114             
1 41923U 17003G   23247.47937992  .00000299  00000+0  99703-4 0  9999
2 41923  86.4029 153.3472 0002074  76.4257 283.7170 14.34217075347522
IRIDIUM 108             
1 41924U 17003H   23247.36813176  .00000038  00000+0  63344-5 0  9999
2 41924  86.3962 121.7676 0002308  79.2099 280.9356 14.34217241349362
